TIANMU-1 07             
1 57399U 23101A   26065.57454230  .00008352  00000+0  29795-3 0  9991
2 57399  97.2728 118.5929 0004609 142.4105 217.7458 15.29118809145964
STARLINK-34182          
1 64013U 25101V   26068.17831815  .00058909  00000+0  21296-2 0  9991
2 64013  43.0053 357.6816 0002042 294.4039  65.6600 15.27635276 47015
